ONEWEB-0589             
1 54655U 22166P   25078.71537645  .00000010  00000+0 -65121-5 0  9993
2 54655  87.9331 334.5999 0001917 107.8320 252.3023 13.21829446111504
ONEWEB-0590             
1 54656U 22166Q   25078.73822812  .00000079  00000+0  16099-3 0  9991
2 54656  87.9317 334.5877 0001260  80.1556 279.9720 13.21822288111493
ONEWEB-0591             
1 54657U 22166R   25078.75165924  .00000022  00000+0  21094-4 0  9998
2 54657  87.9329 334.5938 0001700  86.1445 273.9883 13.21827451111522
ONEWEB-0592             
1 54658U 22166S   25078.75481102 -.00000033  00000+0 -11172-3 0  9997
2 54658  87.9325 334.5486 0001648  84.4290 275.7031 13.21828369111408
ONEWEB-0593             
1 54659U 22166T   25079.15695023  .00000161  00000+0  35929-3 0  9998
2 54659  87.9327 334.5043 0001721  88.2338 271.8993 13.21828348112038
ONEWEB-0594             
1 54660U 22166U   25079.10018684  .00000044  00000+0  75426-4 0  9994
2 54660  87.9333 334.5248 0001840  79.7368 280.3973 13.21825986112032
ONEWEB-0595             
1 54661U 22166V   25078.69961283  .00000025  00000+0  28907-4 0  9991
2 54661  87.9332 334.5851 0001684  72.9253 287.2066 13.21827806111497
ONEWEB-0596             
1 54662U 22166W   25078.67279619  .00000015  00000+0  58817-5 0  9998
2 54662  87.9332 334.6013 0001548  85.5081 274.6230 13.21822998111497
